QZS-1R                  
1 49336U 21096A   24251.47580019 -.00000242  00000+0  00000+0 0  9998
2 49336  36.1112  89.2806 0742863 269.5618 293.2640  1.00294750 10512
